[{"OBJECT_NAME":"HULIANWANG DIGUI-151","OBJECT_ID":"2026-013F","EPOCH":"2026-03-09T17:38:25.543968","MEAN_MOTION":13.45151704,"ECCENTRICITY":0.00185138,"INCLINATION":50.0905,"RA_OF_ASC_NODE":352.8844,"ARG_OF_PERICENTER":290.4029,"MEAN_ANOMALY":69.4862,"EPHEMERIS_TYPE":0,"CLASSIFICATION_TYPE":"U","NORAD_CAT_ID":67527,"ELEMENT_SET_NO":999,"REV_AT_EPOCH":681,"BSTAR":0.00015887467,"MEAN_MOTION_DOT":-3.5e-7,"MEAN_MOTION_DDOT":0},{"OBJECT_NAME":"DELTA 1 DEB","OBJECT_ID":"1975-052MG","EPOCH":"2026-02-19T15:26:20.912640","MEAN_MOTION":13.32584311,"ECCENTRICITY":0.0065218,"INCLINATION":99.7215,"RA_OF_ASC_NODE":207.8483,"ARG_OF_PERICENTER":224.079,"MEAN_ANOMALY":135.5124,"EPHEMERIS_TYPE":0,"CLASSIFICATION_TYPE":"U","NORAD_CAT_ID":42647,"ELEMENT_SET_NO":999,"REV_AT_EPOCH":6799,"BSTAR":0.0001105,"MEAN_MOTION_DOT":1.2e-7,"MEAN_MOTION_DDOT":0}]
